ONEWEB-0328             
1 49197U 21083M   23059.39712957 -.00000009  00000+0 -60394-4 0  9992
2 49197  87.9082 199.6603 0001774 107.2012 252.9311 13.13470709 72740
ONEWEB-0328             
1 49197U 21083M   23059.93037382 -.00000037  00000+0 -13499-3 0  9998
2 49197  87.9081 199.5547 0001756 105.9031 254.2292 13.13470480 74102
ONEWEB-0328             
1 49197U 21083M   23060.84450528  .00000164  00000+0  41307-3 0  9999
2 49197  87.9082 199.3739 0001756 105.1069 255.0254 13.13470573 72936
ONEWEB-0328             
1 49197U 21083M   23061.07303738  .00000274  00000+0  71643-3 0  9993
2 49197  87.9082 199.3288 0001755 104.9930 255.1393 13.13471402 74252
ONEWEB-0328             
1 49197U 21083M   23061.83481440  .00000265  00000+0  69205-3 0  9995
2 49197  87.9085 199.1781 0001738 103.9615 256.1708 13.13470569 73063
ONEWEB-0328             
1 49197U 21083M   23062.36805642  .00000339  00000+0  89376-3 0  9991
2 49197  87.9080 199.0732 0001761 106.9240 253.2083 13.13471537 74427
ONEWEB-0328             
1 49197U 21083M   23062.44423324  .00000432  00000+0  11481-2 0  9998
2 49197  87.9080 199.0582 0001766 106.9282 253.2041 13.13472140 73144
ONEWEB-0328             
1 49197U 21083M   23062.67276613  .00000392  00000+0  10374-2 0  9995
2 49197  87.9081 199.0130 0001769 107.0197 253.1126 13.13471851 73178
